COSMOS 1743             
1 16719U 86034A   25316.13997794  .00032113  00000+0  56964-3 0  9993
2 16719  82.5377 196.3208 0007385  19.2869 340.8660 15.50047198161998
SL-14 R/B               
1 16792U 86046B   25316.13270102  .00000709  00000+0  79251-4 0  9995
2 16792  82.4833 191.2166 0021660 255.9569 103.9239 14.85438298108959
SL-14 R/B               
1 16882U 86055B   25316.27659933  .00001356  00000+0  15394-3 0  9999
2 16882  82.5216 236.9927 0019190   5.5955 108.8550 14.85482554101935
AJISAI (EGS)            
1 16908U 86061A   25316.30946105 -.00000084  00000+0  92197-4 0  9994
2 16908  50.0080  94.2864 0011190 349.2622  92.5669 12.44514173453384
COSMOS 1812             
1 17295U 87003A   25316.30691216  .00141704  00000+0  11989-2 0  9993
2 17295  82.4889 324.8019 0005022 138.5571 221.6072 15.69261178125870
SL-14 R/B               
1 17567U 87024B   25316.14142646  .00000760  00000+0  84148-4 0  9993
2 17567  82.5304 203.1944 0016899 292.3066  67.6359 14.85977911 70672
COSMOS 1833             
1 17589U 87027A   25316.13596215 -.00000214  00000+0 -88917-4 0  9998
2 17589  70.9150 213.1106 0021184  14.8574 345.3164 14.13020081993707
SL-16 R/B               
1 17590U 87027B   25316.02727666 -.00000005  00000+0  21166-4 0  9994
2 17590  71.0010 164.4349 0007179 291.8814  68.1546 14.17147377998717
SL-14 R/B               
1 17912U 87038B   25316.27813662  .00001268  00000+0  14470-3 0  9993
2 17912  82.5036  47.3856 0019080 188.4607 171.6290 14.85216905 61803
COSMOS 1844             
1 17973U 87041A   25316.29554808  .00000554  00000+0  31222-3 0  9991
2 17973  70.8988 281.7814 0031714 202.8435 157.1278 14.14521363986981
SL-14 R/B               
1 18153U 87055B   25315.87123555  .00000883  00000+0  99204-4 0  9991
2 18153  82.4972 100.0781 0021759  46.0691 314.2316 14.85469824 52445
COSMOS 1867             
1 18187U 87060A   25316.28251947  .00000095  00000+0  73197-4 0  9995
2 18187  65.0102 275.4932 0013708 268.0881  91.8634 14.31478745  3137
