CCSDS_OMM_VERS = 2.0
CREATION_DATE  = 
ORIGINATOR     = 

OBJECT_NAME    = COSMOS 1743
OBJECT_ID      = 1986-034A
CENTER_NAME    = EARTH
REF_FRAME      = TEME
TIME_SYSTEM    = UTC
MEAN_ELEMENT_THEORY = SGP/SGP4

EPOCH          = 2025-11-12T03:21:34.094016
MEAN_MOTION    = 15.50047198
ECCENTRICITY   = .00073851
INCLINATION    = 82.5377
RA_OF_ASC_NODE = 196.3208
ARG_OF_PERICENTER = 19.2869
MEAN_ANOMALY   = 340.8660

EPHEMERIS_TYPE = 0
CLASSIFICATION_TYPE = U
NORAD_CAT_ID   = 16719
ELEMENT_SET_NO = 999
REV_AT_EPOCH   = 16199
BSTAR          = .56963737E-3
MEAN_MOTION_DOT = .32113E-3
MEAN_MOTION_DDOT = 0

CCSDS_OMM_VERS = 2.0
CREATION_DATE  = 
ORIGINATOR     = 

OBJECT_NAME    = SL-14 R/B
OBJECT_ID      = 1986-046B
CENTER_NAME    = EARTH
REF_FRAME      = TEME
TIME_SYSTEM    = UTC
MEAN_ELEMENT_THEORY = SGP/SGP4

EPOCH          = 2025-11-12T03:11:05.368128
MEAN_MOTION    = 14.85438298
ECCENTRICITY   = .00216605
INCLINATION    = 82.4833
RA_OF_ASC_NODE = 191.2166
ARG_OF_PERICENTER = 255.9569
MEAN_ANOMALY   = 103.9239

EPHEMERIS_TYPE = 0
CLASSIFICATION_TYPE = U
NORAD_CAT_ID   = 16792
ELEMENT_SET_NO = 999
REV_AT_EPOCH   = 10895
BSTAR          = .79250959E-4
MEAN_MOTION_DOT = .709E-5
MEAN_MOTION_DDOT = 0

CCSDS_OMM_VERS = 2.0
CREATION_DATE  = 
ORIGINATOR     = 

OBJECT_NAME    = SL-14 R/B
OBJECT_ID      = 1986-055B
CENTER_NAME    = EARTH
REF_FRAME      = TEME
TIME_SYSTEM    = UTC
MEAN_ELEMENT_THEORY = SGP/SGP4

EPOCH          = 2025-11-12T06:38:18.182112
MEAN_MOTION    = 14.85482554
ECCENTRICITY   = .00191903
INCLINATION    = 82.5216
RA_OF_ASC_NODE = 236.9927
ARG_OF_PERICENTER = 5.5955
MEAN_ANOMALY   = 108.8550

EPHEMERIS_TYPE = 0
CLASSIFICATION_TYPE = U
NORAD_CAT_ID   = 16882
ELEMENT_SET_NO = 999
REV_AT_EPOCH   = 10193
BSTAR          = .15394429E-3
MEAN_MOTION_DOT = .1356E-4
MEAN_MOTION_DDOT = 0

CCSDS_OMM_VERS = 2.0
CREATION_DATE  = 
ORIGINATOR     = 

OBJECT_NAME    = AJISAI (EGS)
OBJECT_ID      = 1986-061A
CENTER_NAME    = EARTH
REF_FRAME      = TEME
TIME_SYSTEM    = UTC
MEAN_ELEMENT_THEORY = SGP/SGP4

EPOCH          = 2025-11-12T07:25:37.434720
MEAN_MOTION    = 12.44514173
ECCENTRICITY   = .00111907
INCLINATION    = 50.0080
RA_OF_ASC_NODE = 94.2864
ARG_OF_PERICENTER = 349.2622
MEAN_ANOMALY   = 92.5669

EPHEMERIS_TYPE = 0
CLASSIFICATION_TYPE = U
NORAD_CAT_ID   = 16908
ELEMENT_SET_NO = 999
REV_AT_EPOCH   = 45338
BSTAR          = .92196947E-4
MEAN_MOTION_DOT = -.84E-6
MEAN_MOTION_DDOT = 0

CCSDS_OMM_VERS = 2.0
CREATION_DATE  = 
ORIGINATOR     = 

OBJECT_NAME    = COSMOS 1812
OBJECT_ID      = 1987-003A
CENTER_NAME    = EARTH
REF_FRAME      = TEME
TIME_SYSTEM    = UTC
MEAN_ELEMENT_THEORY = SGP/SGP4

EPOCH          = 2025-11-12T07:21:57.210624
MEAN_MOTION    = 15.69261178
ECCENTRICITY   = .00050225
INCLINATION    = 82.4889
RA_OF_ASC_NODE = 324.8019
ARG_OF_PERICENTER = 138.5571
MEAN_ANOMALY   = 221.6072

EPHEMERIS_TYPE = 0
CLASSIFICATION_TYPE = U
NORAD_CAT_ID   = 17295
ELEMENT_SET_NO = 999
REV_AT_EPOCH   = 12587
BSTAR          = .11989011E-2
MEAN_MOTION_DOT = .141704E-2
MEAN_MOTION_DDOT = 0

CCSDS_OMM_VERS = 2.0
CREATION_DATE  = 
ORIGINATOR     = 

OBJECT_NAME    = SL-14 R/B
OBJECT_ID      = 1987-024B
CENTER_NAME    = EARTH
REF_FRAME      = TEME
TIME_SYSTEM    = UTC
MEAN_ELEMENT_THEORY = SGP/SGP4

EPOCH          = 2025-11-12T03:23:39.246144
MEAN_MOTION    = 14.85977911
ECCENTRICITY   = .00168994
INCLINATION    = 82.5304
RA_OF_ASC_NODE = 203.1944
ARG_OF_PERICENTER = 292.3066
MEAN_ANOMALY   = 67.6359

EPHEMERIS_TYPE = 0
CLASSIFICATION_TYPE = U
NORAD_CAT_ID   = 17567
ELEMENT_SET_NO = 999
REV_AT_EPOCH   = 7067
BSTAR          = .84148482E-4
MEAN_MOTION_DOT = .76E-5
MEAN_MOTION_DDOT = 0

CCSDS_OMM_VERS = 2.0
CREATION_DATE  = 
ORIGINATOR     = 

OBJECT_NAME    = COSMOS 1833
OBJECT_ID      = 1987-027A
CENTER_NAME    = EARTH
REF_FRAME      = TEME
TIME_SYSTEM    = UTC
MEAN_ELEMENT_THEORY = SGP/SGP4

EPOCH          = 2025-11-12T03:15:47.129760
MEAN_MOTION    = 14.13020081
ECCENTRICITY   = .00211848
INCLINATION    = 70.9150
RA_OF_ASC_NODE = 213.1106
ARG_OF_PERICENTER = 14.8574
MEAN_ANOMALY   = 345.3164

EPHEMERIS_TYPE = 0
CLASSIFICATION_TYPE = U
NORAD_CAT_ID   = 17589
ELEMENT_SET_NO = 999
REV_AT_EPOCH   = 99370
BSTAR          = -.88917098E-4
MEAN_MOTION_DOT = -.214E-5
MEAN_MOTION_DDOT = 0

CCSDS_OMM_VERS = 2.0
CREATION_DATE  = 
ORIGINATOR     = 

OBJECT_NAME    = SL-16 R/B
OBJECT_ID      = 1987-027B
CENTER_NAME    = EARTH
REF_FRAME      = TEME
TIME_SYSTEM    = UTC
MEAN_ELEMENT_THEORY = SGP/SGP4

EPOCH          = 2025-11-12T00:39:16.703424
MEAN_MOTION    = 14.17147377
ECCENTRICITY   = .00071798
INCLINATION    = 71.0010
RA_OF_ASC_NODE = 164.4349
ARG_OF_PERICENTER = 291.8814
MEAN_ANOMALY   = 68.1546

EPHEMERIS_TYPE = 0
CLASSIFICATION_TYPE = U
NORAD_CAT_ID   = 17590
ELEMENT_SET_NO = 999
REV_AT_EPOCH   = 99871
BSTAR          = .2116642E-4
MEAN_MOTION_DOT = -.5E-7
MEAN_MOTION_DDOT = 0

CCSDS_OMM_VERS = 2.0
CREATION_DATE  = 
ORIGINATOR     = 

OBJECT_NAME    = SL-14 R/B
OBJECT_ID      = 1987-038B
CENTER_NAME    = EARTH
REF_FRAME      = TEME
TIME_SYSTEM    = UTC
MEAN_ELEMENT_THEORY = SGP/SGP4

EPOCH          = 2025-11-12T06:40:31.003968
MEAN_MOTION    = 14.85216905
ECCENTRICITY   = .00190807
INCLINATION    = 82.5036
RA_OF_ASC_NODE = 47.3856
ARG_OF_PERICENTER = 188.4607
MEAN_ANOMALY   = 171.6290

EPHEMERIS_TYPE = 0
CLASSIFICATION_TYPE = U
NORAD_CAT_ID   = 17912
ELEMENT_SET_NO = 999
REV_AT_EPOCH   = 6180
BSTAR          = .1446978E-3
MEAN_MOTION_DOT = .1268E-4
MEAN_MOTION_DDOT = 0

CCSDS_OMM_VERS = 2.0
CREATION_DATE  = 
ORIGINATOR     = 

OBJECT_NAME    = COSMOS 1844
OBJECT_ID      = 1987-041A
CENTER_NAME    = EARTH
REF_FRAME      = TEME
TIME_SYSTEM    = UTC
MEAN_ELEMENT_THEORY = SGP/SGP4

EPOCH          = 2025-11-12T07:05:35.354112
MEAN_MOTION    = 14.14521363
ECCENTRICITY   = .00317145
INCLINATION    = 70.8988
RA_OF_ASC_NODE = 281.7814
ARG_OF_PERICENTER = 202.8435
MEAN_ANOMALY   = 157.1278

EPHEMERIS_TYPE = 0
CLASSIFICATION_TYPE = U
NORAD_CAT_ID   = 17973
ELEMENT_SET_NO = 999
REV_AT_EPOCH   = 98698
BSTAR          = .31221955E-3
MEAN_MOTION_DOT = .554E-5
MEAN_MOTION_DDOT = 0

CCSDS_OMM_VERS = 2.0
CREATION_DATE  = 
ORIGINATOR     = 

OBJECT_NAME    = SL-14 R/B
OBJECT_ID      = 1987-055B
CENTER_NAME    = EARTH
REF_FRAME      = TEME
TIME_SYSTEM    = UTC
MEAN_ELEMENT_THEORY = SGP/SGP4

EPOCH          = 2025-11-11T20:54:34.751520
MEAN_MOTION    = 14.85469824
ECCENTRICITY   = .00217591
INCLINATION    = 82.4972
RA_OF_ASC_NODE = 100.0781
ARG_OF_PERICENTER = 46.0691
MEAN_ANOMALY   = 314.2316

EPHEMERIS_TYPE = 0
CLASSIFICATION_TYPE = U
NORAD_CAT_ID   = 18153
ELEMENT_SET_NO = 999
REV_AT_EPOCH   = 5244
BSTAR          = .99203935E-4
MEAN_MOTION_DOT = .883E-5
MEAN_MOTION_DDOT = 0

CCSDS_OMM_VERS = 2.0
CREATION_DATE  = 
ORIGINATOR     = 

OBJECT_NAME    = COSMOS 1867
OBJECT_ID      = 1987-060A
CENTER_NAME    = EARTH
REF_FRAME      = TEME
TIME_SYSTEM    = UTC
MEAN_ELEMENT_THEORY = SGP/SGP4

EPOCH          = 2025-11-12T06:46:49.682208
MEAN_MOTION    = 14.31478745
ECCENTRICITY   = .00137088
INCLINATION    = 65.0102
RA_OF_ASC_NODE = 275.4932
ARG_OF_PERICENTER = 268.0881
MEAN_ANOMALY   = 91.8634

EPHEMERIS_TYPE = 0
CLASSIFICATION_TYPE = U
NORAD_CAT_ID   = 18187
ELEMENT_SET_NO = 999
REV_AT_EPOCH   = 313
BSTAR          = .73196652E-4
MEAN_MOTION_DOT = .95E-6
MEAN_MOTION_DDOT = 0

